ONEWEB-0136             
1 47282U 20100AA  26125.04132372  .00000072  00000+0  16382-3 0  9995
2 47282  87.8983 359.2255 0001669  70.6695 289.4614 13.12443374259006
ONEWEB-0137             
1 47283U 20100AB  26125.07520429 -.00000103  00000+0 -32102-3 0  9998
2 47283  87.8991 359.2269 0001737  86.3582 273.7746 13.12445361258915
ONEWEB-0138             
1 47284U 20100AC  26125.05320154 -.00000267  00000+0 -77812-3 0  9998
2 47284  87.8984 359.2380 0001643  74.9484 285.1826 13.12443319258997
ONEWEB-0139             
1 47285U 20100AD  26125.01776979  .00000283  00000+0  75221-3 0  9993
2 47285  87.8982 359.2322 0001717  81.2019 278.9304 13.12442123259061
ONEWEB-0140             
1 47286U 20100AE  26125.12433607 -.00000160  00000+0 -47879-3 0  9998
2 47286  87.8985 359.2007 0001900  78.9386 281.1956 13.12443077259045
ONEWEB-0141             
1 47287U 20100AF  26125.09371366  .00000457  00000+0  12356-2 0  9996
2 47287  87.8986 359.2126 0001632  91.9284 268.2032 13.12444422259027
ONEWEB-0142             
1 47288U 20100AG  26125.08210766  .00000166  00000+0  42686-3 0  9999
2 47288  87.8980 359.2385 0001370  87.4991 272.6295 13.12442261259011
ONEWEB-0143             
1 47289U 20100AH  26124.55849804  .00000382  00000+0  10273-2 0  9998
2 47289  87.8986 359.3394 0001735  82.5242 277.6084 13.12444336258924
ONEWEB-0144             
1 47290U 20100AJ  26125.06333903 -.00000355  00000+0 -10213-2 0  9991
2 47290  87.8988 359.2109 0001452  75.7941 284.3349 13.12443396258910
ONEWEB-0145             
1 47291U 20100AK  26125.03455512  .00000275  00000+0  72894-3 0  9993
2 47291  87.8978 359.2495 0001656  80.8659 279.2657 13.12443097259102
ONEWEB-0146             
1 47292U 20100AL  26125.03116542  .00000386  00000+0  10371-2 0  9995
2 47292  87.8984 359.2388 0002083  82.7625 277.3740 13.12443872259013
ONEWEB-0147             
1 47293U 20100AM  26125.07351112 -.00000133  00000+0 -40572-3 0  9993
2 47293  87.8986 359.2114 0001825  77.0509 283.0823 13.12444520258919
ONEWEB-0115             
1 48042U 21025A   26125.05919855 -.00000228  00000+0 -66024-3 0  9990
2 48042  87.8957 328.8141 0001826  87.3096 272.8242 13.13471210247936
ONEWEB-0152             
1 48043U 21025B   26125.07274483  .00000093  00000+0  22006-3 0  9994
2 48043  87.8951 328.8095 0001880  86.2200 273.9145 13.13471278247897
ONEWEB-0153             
1 48044U 21025C   26125.05072784 -.00000259  00000+0 -74333-3 0  9999
2 48044  87.8949 328.8178 0001672  88.2094 271.9226 13.13470904247881
ONEWEB-0154             
1 48045U 21025D   26125.04733618 -.00000173  00000+0 -50898-3 0  9994
2 48045  87.8949 328.8159 0001769  83.5855 276.5475 13.13470172247841
