[{"OBJECT_NAME":"ONEWEB-0136","OBJECT_ID":"2020-100AA","EPOCH":"2026-05-05T00:59:30.369408","MEAN_MOTION":13.12443374,"ECCENTRICITY":0.0001669,"INCLINATION":87.8983,"RA_OF_ASC_NODE":359.2255,"ARG_OF_PERICENTER":70.6695,"MEAN_ANOMALY":289.4614,"EPHEMERIS_TYPE":0,"CLASSIFICATION_TYPE":"U","NORAD_CAT_ID":47282,"ELEMENT_SET_NO":999,"REV_AT_EPOCH":25900,"BSTAR":0.00016382,"MEAN_MOTION_DOT":7.2e-07,"MEAN_MOTION_DDOT":0.0},{"OBJECT_NAME":"ONEWEB-0137","OBJECT_ID":"2020-100AB","EPOCH":"2026-05-05T01:48:17.650656","MEAN_MOTION":13.12445361,"ECCENTRICITY":0.0001737,"INCLINATION":87.8991,"RA_OF_ASC_NODE":359.2269,"ARG_OF_PERICENTER":86.3582,"MEAN_ANOMALY":273.7746,"EPHEMERIS_TYPE":0,"CLASSIFICATION_TYPE":"U","NORAD_CAT_ID":47283,"ELEMENT_SET_NO":999,"REV_AT_EPOCH":25891,"BSTAR":-0.00032102000000000004,"MEAN_MOTION_DOT":-1.03e-06,"MEAN_MOTION_DDOT":0.0},{"OBJECT_NAME":"ONEWEB-0138","OBJECT_ID":"2020-100AC","EPOCH":"2026-05-05T01:16:36.613056","MEAN_MOTION":13.12443319,"ECCENTRICITY":0.0001643,"INCLINATION":87.8984,"RA_OF_ASC_NODE":359.238,"ARG_OF_PERICENTER":74.9484,"MEAN_ANOMALY":285.1826,"EPHEMERIS_TYPE":0,"CLASSIFICATION_TYPE":"U","NORAD_CAT_ID":47284,"ELEMENT_SET_NO":999,"REV_AT_EPOCH":25899,"BSTAR":-0.0007781200000000001,"MEAN_MOTION_DOT":-2.67e-06,"MEAN_MOTION_DDOT":0.0},{"OBJECT_NAME":"ONEWEB-0139","OBJECT_ID":"2020-100AD","EPOCH":"2026-05-05T00:25:35.309856","MEAN_MOTION":13.12442123,"ECCENTRICITY":0.0001717,"INCLINATION":87.8982,"RA_OF_ASC_NODE":359.2322,"ARG_OF_PERICENTER":81.2019,"MEAN_ANOMALY":278.9304,"EPHEMERIS_TYPE":0,"CLASSIFICATION_TYPE":"U","NORAD_CAT_ID":47285,"ELEMENT_SET_NO":999,"REV_AT_EPOCH":25906,"BSTAR":0.00075221,"MEAN_MOTION_DOT":2.83e-06,"MEAN_MOTION_DDOT":0.0},{"OBJECT_NAME":"ONEWEB-0140","OBJECT_ID":"2020-100AE","EPOCH":"2026-05-05T02:59:02.636448","MEAN_MOTION":13.12443077,"ECCENTRICITY":0.00019,"INCLINATION":87.8985,"RA_OF_ASC_NODE":359.2007,"ARG_OF_PERICENTER":78.9386,"MEAN_ANOMALY":281.1956,"EPHEMERIS_TYPE":0,"CLASSIFICATION_TYPE":"U","NORAD_CAT_ID":47286,"ELEMENT_SET_NO":999,"REV_AT_EPOCH":25904,"BSTAR":-0.00047879,"MEAN_MOTION_DOT":-1.6e-06,"MEAN_MOTION_DDOT":0.0},{"OBJECT_NAME":"ONEWEB-0141","OBJECT_ID":"2020-100AF","EPOCH":"2026-05-05T02:14:56.860224","MEAN_MOTION":13.12444422,"ECCENTRICITY":0.0001632,"INCLINATION":87.8986,"RA_OF_ASC_NODE":359.2126,"ARG_OF_PERICENTER":91.9284,"MEAN_ANOMALY":268.2032,"EPHEMERIS_TYPE":0,"CLASSIFICATION_TYPE":"U","NORAD_CAT_ID":47287,"ELEMENT_SET_NO":999,"REV_AT_EPOCH":25902,"BSTAR":0.0012356000000000001,"MEAN_MOTION_DOT":4.57e-06,"MEAN_MOTION_DDOT":0.0},{"OBJECT_NAME":"ONEWEB-0142","OBJECT_ID":"2020-100AG","EPOCH":"2026-05-05T01:58:14.101824","MEAN_MOTION":13.12442261,"ECCENTRICITY":0.000137,"INCLINATION":87.898,"RA_OF_ASC_NODE":359.2385,"ARG_OF_PERICENTER":87.4991,"MEAN_ANOMALY":272.6295,"EPHEMERIS_TYPE":0,"CLASSIFICATION_TYPE":"U","NORAD_CAT_ID":47288,"ELEMENT_SET_NO":999,"REV_AT_EPOCH":25901,"BSTAR":0.00042686000000000004,"MEAN_MOTION_DOT":1.66e-06,"MEAN_MOTION_DDOT":0.0},{"OBJECT_NAME":"ONEWEB-0143","OBJECT_ID":"2020-100AH","EPOCH":"2026-05-04T13:24:14.230656","MEAN_MOTION":13.12444336,"ECCENTRICITY":0.0001735,"INCLINATION":87.8986,"RA_OF_ASC_NODE":359.3394,"ARG_OF_PERICENTER":82.5242,"MEAN_ANOMALY":277.6084,"EPHEMERIS_TYPE":0,"CLASSIFICATION_TYPE":"U","NORAD_CAT_ID":47289,"ELEMENT_SET_NO":999,"REV_AT_EPOCH":25892,"BSTAR":0.0010273,"MEAN_MOTION_DOT":3.82e-06,"MEAN_MOTION_DDOT":0.0},{"OBJECT_NAME":"ONEWEB-0144","OBJECT_ID":"2020-100AJ","EPOCH":"2026-05-05T01:31:12.492192","MEAN_MOTION":13.12443396,"ECCENTRICITY":0.0001452,"INCLINATION":87.8988,"RA_OF_ASC_NODE":359.2109,"ARG_OF_PERICENTER":75.7941,"MEAN_ANOMALY":284.3349,"EPHEMERIS_TYPE":0,"CLASSIFICATION_TYPE":"U","NORAD_CAT_ID":47290,"ELEMENT_SET_NO":999,"REV_AT_EPOCH":25891,"BSTAR":-0.0010213,"MEAN_MOTION_DOT":-3.55e-06,"MEAN_MOTION_DDOT":0.0},{"OBJECT_NAME":"ONEWEB-0145","OBJECT_ID":"2020-100AK","EPOCH":"2026-05-05T00:49:45.562368","MEAN_MOTION":13.12443097,"ECCENTRICITY":0.0001656,"INCLINATION":87.8978,"RA_OF_ASC_NODE":359.2495,"ARG_OF_PERICENTER":80.8659,"MEAN_ANOMALY":279.2657,"EPHEMERIS_TYPE":0,"CLASSIFICATION_TYPE":"U","NORAD_CAT_ID":47291,"ELEMENT_SET_NO":999,"REV_AT_EPOCH":25910,"BSTAR":0.0007289400000000001,"MEAN_MOTION_DOT":2.75e-06,"MEAN_MOTION_DDOT":0.0},{"OBJECT_NAME":"ONEWEB-0146","OBJECT_ID":"2020-100AL","EPOCH":"2026-05-05T00:44:52.692288","MEAN_MOTION":13.12443872,"ECCENTRICITY":0.0002083,"INCLINATION":87.8984,"RA_OF_ASC_NODE":359.2388,"ARG_OF_PERICENTER":82.7625,"MEAN_ANOMALY":277.374,"EPHEMERIS_TYPE":0,"CLASSIFICATION_TYPE":"U","NORAD_CAT_ID":47292,"ELEMENT_SET_NO":999,"REV_AT_EPOCH":25901,"BSTAR":0.0010371,"MEAN_MOTION_DOT":3.86e-06,"MEAN_MOTION_DDOT":0.0},{"OBJECT_NAME":"ONEWEB-0147","OBJECT_ID":"2020-100AM","EPOCH":"2026-05-05T01:45:51.360768","MEAN_MOTION":13.1244452,"ECCENTRICITY":0.0001825,"INCLINATION":87.8986,"RA_OF_ASC_NODE":359.2114,"ARG_OF_PERICENTER":77.0509,"MEAN_ANOMALY":283.0823,"EPHEMERIS_TYPE":0,"CLASSIFICATION_TYPE":"U","NORAD_CAT_ID":47293,"ELEMENT_SET_NO":999,"REV_AT_EPOCH":25891,"BSTAR":-0.00040572000000000004,"MEAN_MOTION_DOT":-1.33e-06,"MEAN_MOTION_DDOT":0.0},{"OBJECT_NAME":"ONEWEB-0115","OBJECT_ID":"2021-025A","EPOCH":"2026-05-05T01:25:14.754720","MEAN_MOTION":13.1347121,"ECCENTRICITY":0.0001826,"INCLINATION":87.8957,"RA_OF_ASC_NODE":328.8141,"ARG_OF_PERICENTER":87.3096,"MEAN_ANOMALY":272.8242,"EPHEMERIS_TYPE":0,"CLASSIFICATION_TYPE":"U","NORAD_CAT_ID":48042,"ELEMENT_SET_NO":999,"REV_AT_EPOCH":24793,"BSTAR":-0.0006602400000000001,"MEAN_MOTION_DOT":-2.28e-06,"MEAN_MOTION_DDOT":0.0},{"OBJECT_NAME":"ONEWEB-0152","OBJECT_ID":"2021-025B","EPOCH":"2026-05-05T01:44:45.153312","MEAN_MOTION":13.13471278,"ECCENTRICITY":0.000188,"INCLINATION":87.8951,"RA_OF_ASC_NODE":328.8095,"ARG_OF_PERICENTER":86.22,"MEAN_ANOMALY":273.9145,"EPHEMERIS_TYPE":0,"CLASSIFICATION_TYPE":"U","NORAD_CAT_ID":48043,"ELEMENT_SET_NO":999,"REV_AT_EPOCH":24789,"BSTAR":0.00022006,"MEAN_MOTION_DOT":9.3e-07,"MEAN_MOTION_DDOT":0.0},{"OBJECT_NAME":"ONEWEB-0153","OBJECT_ID":"2021-025C","EPOCH":"2026-05-05T01:13:02.885376","MEAN_MOTION":13.13470904,"ECCENTRICITY":0.0001672,"INCLINATION":87.8949,"RA_OF_ASC_NODE":328.8178,"ARG_OF_PERICENTER":88.2094,"MEAN_ANOMALY":271.9226,"EPHEMERIS_TYPE":0,"CLASSIFICATION_TYPE":"U","NORAD_CAT_ID":48044,"ELEMENT_SET_NO":999,"REV_AT_EPOCH":24788,"BSTAR":-0.00074333,"MEAN_MOTION_DOT":-2.59e-06,"MEAN_MOTION_DDOT":0.0},{"OBJECT_NAME":"ONEWEB-0154","OBJECT_ID":"2021-025D","EPOCH":"2026-05-05T01:08:09.845952","MEAN_MOTION":13.13470172,"ECCENTRICITY":0.0001769,"INCLINATION":87.8949,"RA_OF_ASC_NODE":328.8159,"ARG_OF_PERICENTER":83.5855,"MEAN_ANOMALY":276.5475,"EPHEMERIS_TYPE":0,"CLASSIFICATION_TYPE":"U","NORAD_CAT_ID":48045,"ELEMENT_SET_NO":999,"REV_AT_EPOCH":24784,"BSTAR":-0.00050898,"MEAN_MOTION_DOT":-1.73e-06,"MEAN_MOTION_DDOT":0.0}]